GPS BIIR-2  (PRN 13)    
1 24876U 97035A   17288.22627424 -.00000048  00000-0  00000+0 0  9998
2 24876  55.5271 222.3896 0033119  98.7572 261.6085  2.00565194148239
GPS BIIR-3  (PRN 11)    
1 25933U 99055A   17288.32733319 -.00000024  00000-0  00000+0 0  9993
2 25933  51.7182  72.3806 0168095  97.8290 263.0855  2.00555729132053
GPS BIIR-4  (PRN 20)    
1 26360U 00025A   17288.42158826  .00000025  00000-0  00000+0 0  9992
2 26360  53.1372 149.8748 0043858  97.0792  74.6719  2.00554457127740
GPS BIIR-5  (PRN 28)    
1 26407U 00040A   17288.52079465 -.00000065  00000-0  00000+0 0  9998
2 26407  56.5906 340.4562 0201662 270.6767 256.3108  2.00565592126422
GPS BIIR-6  (PRN 14)    
1 26605U 00071A   17288.23410382 -.00000049  00000-0  00000+0 0  9999
2 26605  55.0989 220.0748 0095292 248.8751 338.8085  2.00559821124028
GPS BIIR-7  (PRN 18)    
1 26690U 01004A   17288.44741019  .00000021  00000-0  00000+0 0  9996
2 26690  53.0572 152.8040 0183422 258.3055 236.4358  2.00567577122426
GPS BIIR-8  (PRN 16)    
1 27663U 03005A   17288.23909233 -.00000065  00000-0  00000+0 0  9990
2 27663  56.6581 340.2132 0092055  24.9060  52.1145  2.00551912107780
GPS BIIR-9  (PRN 21)    
1 27704U 03010A   17288.49843497  .00000023  00000-0  00000+0 0  9992
2 27704  53.9335  93.2280 0242231 266.3686 325.1555  2.00573257106593
GPS BIIR-10 (PRN 22)    
1 28129U 03058A   17287.92201840  .00000016  00000-0  00000+0 0  9995
2 28129  52.9480 152.8029 0074117 264.6408  94.5988  2.00559658101273
GPS BIIR-11 (PRN 19)    
1 28190U 04009A   17288.39977167 -.00000080  00000-0  00000+0 0  9996
2 28190  56.0669  41.1654 0097442  61.3956 288.1716  2.00562847 99466
GPS BIIR-12 (PRN 23)    
1 28361U 04023A   17288.37918480 -.00000051  00000-0  00000+0 0  9991
2 28361  54.0890 215.0596 0120186 222.2912  22.3413  2.00563986 97543
GPS BIIR-13 (PRN 02)    
1 28474U 04045A   17287.58650837  .00000027  00000-0  00000+0 0  9993
2 28474  54.3088  92.7840 0173599 248.5549 147.2423  2.00571788 94897
GPS BIIRM-1 (PRN 17)    
1 28874U 05038A   17288.46991951 -.00000084  00000-0  00000+0 0  9997
2 28874  56.2184  38.4414 0122248 254.8675 167.1592  2.00560910 88311
GPS BIIRM-2 (PRN 31)    
1 29486U 06042A   17288.19642997 -.00000009  00000-0  00000+0 0  9993
2 29486  55.3264 277.4841 0086501 345.3023 155.6869  2.00548760 81022
GPS BIIRM-3 (PRN 12)    
1 29601U 06052A   17287.94072189 -.00000064  00000-0  00000+0 0  9996
2 29601  56.6319 339.1429 0063458  50.9967 309.6252  2.00560388 79930
GPS BIIRM-4 (PRN 15)    
1 32260U 07047A   17287.75769401 -.00000049  00000-0  00000+0 0  9998
2 32260  53.2145 211.3271 0096207  34.2240 326.3978  2.00568096 73319
GPS BIIRM-5 (PRN 29)    
1 32384U 07062A   17288.19906906 -.00000082  00000-0  00000+0 0  9991
2 32384  56.2857  39.0419 0002925  22.9387  75.2994  2.00577939 72052
GPS BIIRM-6 (PRN 07)    
1 32711U 08012A   17288.16602521 -.00000010  00000-0  00000+0 0  9995
2 32711  55.0563 276.8234 0112186 214.7133 144.5495  2.00558387 70234
GPS BIIRM-8 (PRN 05)    
1 35752U 09043A   17288.49871802  .00000022  00000-0  00000+0 0  9996
2 35752  54.2681 154.6393 0051175  32.5610 232.6150  2.00574943 59824
GPS BIIF-1  (PRN 25)    
1 36585U 10022A   17288.43068097 -.00000060  00000-0  00000+0 0  9991
2 36585  55.9333 335.8577 0064188  45.4244 278.8111  2.00555937 54075
GPS BIIF-2  (PRN 01)    
1 37753U 11036A   17288.36717435  .00000033  00000-0  00000+0 0  9993
2 37753  55.5131  95.9818 0069540  34.5866 328.7743  2.00562953 45750
GPS BIIF-3  (PRN 24)    
1 38833U 12053A   17287.85320660 -.00000010  00000-0  00000+0 0  9992
2 38833  54.0852 273.6351 0059752  24.8560 335.4276  2.00563342 36814
GPS BIIF-4  (PRN 27)    
1 39166U 13023A   17288.20480811 -.00000087  00000-0  00000+0 0  9999
2 39166  55.9225  35.4279 0048800  19.6185 340.5704  2.00563919 32356
GPS BIIF-5  (PRN 30)    
1 39533U 14008A   17288.20699233 -.00000012  00000-0  00000+0 0  9999
2 39533  54.2362 278.9345 0030741 189.4246 170.5204  2.00569808 26717
GPS BIIF-6  (PRN 06)    
1 39741U 14026A   17287.99062399  .00000034  00000-0  00000+0 0  9995
2 39741  55.4986  95.5182 0007848 285.4492  74.4950  2.00552896 24994
GPS BIIF-7  (PRN 09)    
1 40105U 14045A   17288.07794454 -.00000049  00000-0  00000+0 0  9993
2 40105  54.6135 215.0432 0006705 107.8371 252.2366  2.00553522 23441
GPS BIIF-8  (PRN 03)    
1 40294U 14068A   17287.95293999  .00000016  00000-0  00000+0 0  9994
2 40294  55.0169 155.7354 0009619  17.8857 342.2340  2.00567437 21665
GPS BIIF-9  (PRN 26)    
1 40534U 15013A   17288.09381293 -.00000061  00000-0  00000+0 0  9994
2 40534  54.8838 334.8448 0020231 350.9224   9.0991  2.00550935 18737
GPS BIIF-10  (PRN 08)   
1 40730U 15033A   17288.24637184 -.00000088  00000-0  00000+0 0  9993
2 40730  55.4557  35.0431 0028524 319.8266  39.9660  2.00560292 16498
GPS BIIF-11  (PRN 10)   
1 41019U 15062A   17287.80170081  .00000015  00000-0  00000+0 0  9994
2 41019  55.0247 155.5346 0029053 199.5848 160.3882  2.00563796 14306
GPS BIIF-12  (PRN 32)   
1 41328U 16007A   17287.89383843 -.00000048  00000-0  00000+0 0  9995
2 41328  54.8686 215.2734 0016089 219.6535 140.2295  2.00572353 12368
